{
  "type": "FeatureCollection",
  "features": [
    {
      "type": "Feature",
      "properties": {
        "norad_id": 40010,
        "name": "KAZEOSAT 2",
        "group": "resource",
        "lat": 50.77119537907329,
        "lon": 27.089950225536956,
        "alt_km": 604.9790757540823,
        "timestamp": "2025-12-19T18:58:41.249301+00:00",
        "meta_object_name": "KAZEOSAT 2",
        "meta_object_id": "2014-033A",
        "meta_epoch": "2025-12-19T07:04:55.896960",
        "meta_mean_motion": 14.85177367,
        "meta_eccentricity": 0.00081534,
        "meta_inclination": 97.5501,
        "meta_ra_of_asc_node": 197.2706,
        "meta_arg_of_pericenter": 183.5264,
        "meta_mean_anomaly": 176.5895,
        "meta_ephemeris_type": 0,
        "meta_classification_type": "U",
        "meta_norad_cat_id": 40010,
        "meta_element_set_no": 999,
        "meta_rev_at_epoch": 62225,
        "meta_bstar": 2.8318225e-05,
        "meta_mean_motion_dot": 1.93e-06,
        "meta_mean_motion_ddot": 0,
        "tle_line1": "1 40010U 14033A   25353.29509140  .00000193  00000+0  28318-4 0  9992",
        "tle_line2": "2 40010  97.5501 197.2706 0008153 183.5264 176.5895 14.85177367622259"
      },
      "geometry": {
        "type": "Point",
        "coordinates": [
          27.089950225536956,
          50.77119537907329
        ]
      }
    },
    {
      "type": "Feature",
      "properties": {
        "norad_id": 40011,
        "name": "HODOYOSHI-4",
        "group": "resource",
        "lat": -80.70124350523712,
        "lon": -123.67424354529763,
        "alt_km": 615.4755406336117,
        "timestamp": "2025-12-19T18:58:41.249312+00:00",
        "meta_object_name": "HODOYOSHI-4",
        "meta_object_id": "2014-033B",
        "meta_epoch": "2025-12-19T06:26:36.544128",
        "meta_mean_motion": 14.87502154,
        "meta_eccentricity": 0.00236855,
        "meta_inclination": 97.5406,
        "meta_ra_of_asc_node": 181.8297,
        "meta_arg_of_pericenter": 178.8106,
        "meta_mean_anomaly": 181.3172,
        "meta_ephemeris_type": 0,
        "meta_classification_type": "U",
        "meta_norad_cat_id": 40011,
        "meta_element_set_no": 999,
        "meta_rev_at_epoch": 62205,
        "meta_bstar": 0.00012351553,
        "meta_mean_motion_dot": 1.073e-05,
        "meta_mean_motion_ddot": 0,
        "tle_line1": "1 40011U 14033B   25353.26847852  .00001073  00000+0  12352-3 0  9993",
        "tle_line2": "2 40011  97.5406 181.8297 0023685 178.8106 181.3172 14.87502154622055"
      },
      "geometry": {
        "type": "Point",
        "coordinates": [
          -123.67424354529763,
          -80.70124350523712
        ]
      }
    },
    {
      "type": "Feature",
      "properties": {
        "norad_id": 40013,
        "name": "DEIMOS-2",
        "group": "resource",
        "lat": -31.511071858056535,
        "lon": 44.65818747181008,
        "alt_km": 594.9578335264268,
        "timestamp": "2025-12-19T18:58:41.249323+00:00",
        "meta_object_name": "DEIMOS-2",
        "meta_object_id": "2014-033D",
        "meta_epoch": "2025-12-19T06:46:24.132000",
        "meta_mean_motion": 14.93001033,
        "meta_eccentricity": 0.00013781,
        "meta_inclination": 97.6067,
        "meta_ra_of_asc_node": 228.866,
        "meta_arg_of_pericenter": 106.2256,
        "meta_mean_anomaly": 253.9116,
        "meta_ephemeris_type": 0,
        "meta_classification_type": "U",
        "meta_norad_cat_id": 40013,
        "meta_element_set_no": 999,
        "meta_rev_at_epoch": 61087,
        "meta_bstar": 0.00021705565,
        "meta_mean_motion_dot": 2.202e-05,
        "meta_mean_motion_ddot": 0,
        "tle_line1": "1 40013U 14033D   25353.28222375  .00002202  00000+0  21706-3 0  9992",
        "tle_line2": "2 40013  97.6067 228.8660 0001378 106.2256 253.9116 14.93001033610871"
      },
      "geometry": {
        "type": "Point",
        "coordinates": [
          44.65818747181008,
          -31.511071858056535
        ]
      }
    },
    {
      "type": "Feature",
      "properties": {
        "norad_id": 40015,
        "name": "HODOYOSHI-3",
        "group": "resource",
        "lat": 46.928355250729446,
        "lon": -12.447346775245942,
        "alt_km": 610.5455856904227,
        "timestamp": "2025-12-19T18:58:41.249333+00:00",
        "meta_object_name": "HODOYOSHI-3",
        "meta_object_id": "2014-033F",
        "meta_epoch": "2025-12-18T22:58:21.507168",
        "meta_mean_motion": 14.84827132,
        "meta_eccentricity": 0.00321499,
        "meta_inclination": 97.6203,
        "meta_ra_of_asc_node": 158.522,
        "meta_arg_of_pericenter": 226.7251,
        "meta_mean_anomaly": 133.1281,
        "meta_ephemeris_type": 0,
        "meta_classification_type": "U",
        "meta_norad_cat_id": 40015,
        "meta_element_set_no": 999,
        "meta_rev_at_epoch": 62087,
        "meta_bstar": 0.00015428862,
        "meta_mean_motion_dot": 1.27e-05,
        "meta_mean_motion_ddot": 0,
        "tle_line1": "1 40015U 14033F   25352.95719337  .00001270  00000+0  15429-3 0  9995",
        "tle_line2": "2 40015  97.6203 158.5220 0032149 226.7251 133.1281 14.84827132620878"
      },
      "geometry": {
        "type": "Point",
        "coordinates": [
          -12.447346775245942,
          46.928355250729446
        ]
      }
    },
    {
      "type": "Feature",
      "properties": {
        "norad_id": 40053,
        "name": "SPOT 7",
        "group": "resource",
        "lat": -34.2862619917073,
        "lon": 61.269563088967644,
        "alt_km": 697.5104033010239,
        "timestamp": "2025-12-19T18:58:41.249343+00:00",
        "meta_object_name": "SPOT 7",
        "meta_object_id": "2014-034A",
        "meta_epoch": "2025-12-19T07:37:43.406400",
        "meta_mean_motion": 14.6074215,
        "meta_eccentricity": 0.00015254,
        "meta_inclination": 98.0905,
        "meta_ra_of_asc_node": 55.2421,
        "meta_arg_of_pericenter": 85.4537,
        "meta_mean_anomaly": 274.6838,
        "meta_ephemeris_type": 0,
        "meta_classification_type": "U",
        "meta_norad_cat_id": 40053,
        "meta_element_set_no": 999,
        "meta_rev_at_epoch": 61087,
        "meta_bstar": 0.00011354752,
        "meta_mean_motion_dot": 5.08e-06,
        "meta_mean_motion_ddot": 0,
        "tle_line1": "1 40053U 14034A   25353.31786350  .00000508  00000+0  11355-3 0  9995",
        "tle_line2": "2 40053  98.0905  55.2421 0001525  85.4537 274.6838 14.60742150610879"
      },
      "geometry": {
        "type": "Point",
        "coordinates": [
          61.269563088967644,
          -34.2862619917073
        ]
      }
    },
    {
      "type": "Feature",
      "properties": {
        "norad_id": 40072,
        "name": "SKYSAT-B",
        "group": "resource",
        "lat": -34.6531220373376,
        "lon": 112.03398289155594,
        "alt_km": 612.0839192725625,
        "timestamp": "2025-12-19T18:58:41.249353+00:00",
        "meta_object_name": "SKYSAT-B",
        "meta_object_id": "2014-037D",
        "meta_epoch": "2025-12-18T19:24:39.195072",
        "meta_mean_motion": 14.87348069,
        "meta_eccentricity": 0.00065151,
        "meta_inclination": 98.3619,
        "meta_ra_of_asc_node": 296.8355,
        "meta_arg_of_pericenter": 133.0045,
        "meta_mean_anomaly": 227.1716,
        "meta_ephemeris_type": 0,
        "meta_classification_type": "U",
        "meta_norad_cat_id": 40072,
        "meta_element_set_no": 999,
        "meta_rev_at_epoch": 61914,
        "meta_bstar": 0.00015223593,
        "meta_mean_motion_dot": 1.314e-05,
        "meta_mean_motion_ddot": 0,
        "tle_line1": "1 40072U 14037D   25352.80878698  .00001314  00000+0  15224-3 0  9994",
        "tle_line2": "2 40072  98.3619 296.8355 0006515 133.0045 227.1716 14.87348069619149"
      },
      "geometry": {
        "type": "Point",
        "coordinates": [
          112.03398289155594,
          -34.6531220373376
        ]
      }
    },
    {
      "type": "Feature",
      "properties": {
        "norad_id": 40115,
        "name": "WORLDVIEW-3 (WV-3)",
        "group": "resource",
        "lat": 52.54502962327295,
        "lon": 55.57144511266962,
        "alt_km": 609.6096271230908,
        "timestamp": "2025-12-19T18:58:41.249363+00:00",
        "meta_object_name": "WORLDVIEW-3 (WV-3)",
        "meta_object_id": "2014-048A",
        "meta_epoch": "2025-12-19T05:47:55.924800",
        "meta_mean_motion": 14.84661803,
        "meta_eccentricity": 0.00017326,
        "meta_inclination": 97.8773,
        "meta_ra_of_asc_node": 65.441,
        "meta_arg_of_pericenter": 138.3296,
        "meta_mean_anomaly": 221.8051,
        "meta_ephemeris_type": 0,
        "meta_classification_type": "U",
        "meta_norad_cat_id": 40115,
        "meta_element_set_no": 999,
        "meta_rev_at_epoch": 61520,
        "meta_bstar": 0.00010007721,
        "meta_mean_motion_dot": 7.93e-06,
        "meta_mean_motion_ddot": 0,
        "tle_line1": "1 40115U 14048A   25353.24161950  .00000793  00000+0  10008-3 0  9994",
        "tle_line2": "2 40115  97.8773  65.4410 0001732 138.3296 221.8051 14.84661803615203"
      },
      "geometry": {
        "type": "Point",
        "coordinates": [
          55.57144511266962,
          52.54502962327295
        ]
      }
    }
  ]
}